- !!map
  id:                 18
  name:               Saturn
  radius:             14304000
  atmosphereAlt:      1118000
  mass:               3.551983681683113e+25
  stdGravParam:       2370700468665760
  soi:                13618828240.673384
  orbit:
    semiMajorAxis:    356209689653.315
    eccentricity:     0.05424221197652705
    inclination:      2.487376708567551
    argOfPeriapsis:   338.7271583357293
    ascNodeLongitude: 113.8411241598629
  meanAnomaly0:       1.1535283173437991
  epoch:              0
  orbiting:           0
  color:              0xe9d7b4

- !!map
  id:                 19
  name:               Mimas
  radius:             49550
  mass:               2344369446983204400
  stdGravParam:       156470250
  soi:                62416.10600571147
  orbit:
    semiMajorAxis:    46502321.4805122
    eccentricity:     0.01776275223147744
    inclination:      1.574
    argOfPeriapsis:   222.2172789396715
    ascNodeLongitude: 139.7604722490289
  meanAnomaly0:       2.1919760798055545
  epoch:              0
  orbiting:           18
  color:              0xffffff

- !!map
  id:                 20
  name:               Enceladus
  radius:             63025
  mass:               6753006088490554000
  stdGravParam:       450715885.364125
  soi:                122146.68563541255
  orbit:
    semiMajorAxis:    59603424.870968
    eccentricity:     0.006227897999957464
    inclination:      0.009
    argOfPeriapsis:   115.5615886062458
    ascNodeLongitude: 128.4244161601446
  meanAnomaly0:       6.049837363294359
  epoch:              0
  orbiting:           18
  color:              0xffffff

- !!map
  id:                 21
  name:               Tethys
  radius:             132775
  mass:               38591198539931230000
  stdGravParam:       2575692364.15063
  soi:                303479.86107260233
  orbit:
    semiMajorAxis:    73743365.5951105
    eccentricity:     0.001064868868083566
    inclination:      1.12
    argOfPeriapsis:   215.9196892523803
    ascNodeLongitude: 119.2518388332899
  meanAnomaly0:       6.105565273654561
  epoch:              0
  orbiting:           18
  color:              0xffffff

- !!map
  id:                 22
  name:               Dione
  radius:             140350
  mass:               68468197495729906000
  stdGravParam:       4569772905.4575
  soi:                488694.4648385407
  orbit:
    semiMajorAxis:    94412662.8754272
    eccentricity:     0.001679230905502774
    inclination:      0.019
    argOfPeriapsis:   123.671715604926
    ascNodeLongitude: 128.5606071129818
  meanAnomaly0:       2.9308839134421727
  epoch:              0
  orbiting:           18
  color:              0xffffff

- !!map
  id:                 23
  name:               Rhea
  radius:             190950
  mass:               144156001709448940000
  stdGravParam:       9621404022.09375
  soi:                918904.8291756393
  orbit:
    semiMajorAxis:    131803161.4268
    eccentricity:     0.001168269515756326
    inclination:      0.345
    argOfPeriapsis:   172.7367089889645
    ascNodeLongitude: 130.3670574820431
  meanAnomaly0:       0.23542531935505198
  epoch:              0
  orbiting:           18
  color:              0xffffff

- !!map
  id:                 24
  name:               Titan
  radius:             643325
  atmosphereAlt:      81000
  mass:               8.407378279878595e+21
  stdGravParam:       561133648533.937
  soi:                10831162.367788855
  orbit:
    semiMajorAxis:    305491559.627855
    eccentricity:     0.02891936561555365
    inclination:      0.34854
    argOfPeriapsis:   182.0886765021483
    ascNodeLongitude: 126.4945233702913
  meanAnomaly0:       1.311809948776336
  epoch:              0
  orbiting:           18
  color:              0xb27f3f

- !!map
  id:                 25
  name:               Iapetus
  radius:             183625
  mass:               112850868914436730000
  stdGravParam:       7532005543.95625
  soi:                5626306.919135839
  orbit:
    semiMajorAxis:    890040648.255743
    eccentricity:     0.0288028628196961
    inclination:      15.47
    argOfPeriapsis:   314.3819081366686
    ascNodeLongitude: 50.29392880240187
  meanAnomaly0:       2.4359269334587883
  epoch:              0
  orbiting:           18
  color:              0xffffff

- !!map
  id:                 26
  name:               Halley
  radius:             4000
  mass:               220000000000000
  stdGravParam:       14683.46
  soi:                843219.0807182685
  orbit:
    semiMajorAxis:    671004950336.837
    eccentricity:     0.9673583550332406
    inclination:      162.2154553725337
    argOfPeriapsis:   112.0348759078759
    ascNodeLongitude: 58.9329118962775
  meanAnomaly0:       3.2902369167132752
  epoch:              0
  orbiting:           0
  color:              0xffffff

- !!map
  id:                 27
  name:               Uranus
  radius:             6175500
  atmosphereAlt:      891000
  mass:               5.425617033133618e+24
  stdGravParam:       362121957642437
  soi:                12923128556.255531
  orbit:
    semiMajorAxis:    716708213290.993
    eccentricity:     0.04734074764887236
    inclination:      0.7736150677926379
    argOfPeriapsis:   96.67388393087062
    ascNodeLongitude: 74.01706616784516
  meanAnomaly0:       5.031859603542498
  epoch:              0
  orbiting:           0
  color:              0x6093c6

- !!map
  id:                 28
  name:               Miranda
  radius:             58925
  mass:               4044915664594130000
  stdGravParam:       269969806.202006
  soi:                114938.77971966886
  orbit:
    semiMajorAxis:    32470011.9085438
    eccentricity:     0.00118741261963413
    inclination:      4.232
    argOfPeriapsis:   326.7575256535064
    ascNodeLongitude: 169.064212054828
  meanAnomaly0:       4.4156939860723
  epoch:              0
  orbiting:           27
  color:              0xffffff

- !!map
  id:                 29
  name:               Ariel
  radius:             144725
  mass:               78157488723259970000
  stdGravParam:       5216465269.85654
  soi:                552402.2490971631
  orbit:
    semiMajorAxis:    47736091.1194055
    eccentricity:     0.00190951361476287
    inclination:      0.26
    argOfPeriapsis:   169.996640499191
    ascNodeLongitude: 166.5671084714081
  meanAnomaly0:       0.810944190678705
  epoch:              0
  orbiting:           27
  color:              0xffffff

- !!map
  id:                 30
  name:               Umbriel
  radius:             146175
  mass:               79683806677192500000
  stdGravParam:       5318336309.05586
  soi:                775492.4009668754
  orbit:
    semiMajorAxis:    66498090.031914
    eccentricity:     0.0038334454580725
    inclination:      0.128
    argOfPeriapsis:   207.7259222157362
    ascNodeLongitude: 166.5601075193709
  meanAnomaly0:       1.995350222525624
  epoch:              0
  orbiting:           27
  color:              0xffffff

- !!map
  id:                 31
  name:               Titania
  radius:             197225
  mass:               212516387836667530000
  stdGravParam:       14183981273.3827
  soi:                1883194.833729544
  orbit:
    semiMajorAxis:    109073170.741926
    eccentricity:     0.002486916
    inclination:      0.34
    argOfPeriapsis:   165.7455424030838
    ascNodeLongitude: 166.6555214910122
  meanAnomaly0:       3.711534845860309
  epoch:              0
  orbiting:           27
  color:              0xffffff

- !!map
  id:                 32
  name:               Oberon
  radius:             190350
  mass:               192270566064570100000
  stdGravParam:       12832714390.8476
  soi:                2419458.6235050596
  orbit:
    semiMajorAxis:    145858832.085151
    eccentricity:     0.00110558297330948
    inclination:      0.058
    argOfPeriapsis:   274.4599570542317
    ascNodeLongitude: 166.6887328903476
  meanAnomaly0:       4.651563202426656
  epoch:              0
  orbiting:           27
  color:              0xffffff

- !!map
  id:                 33
  name:               Neptune
  radius:             6021250
  atmosphereAlt:      688000
  mass:               6.400577122731658e+24
  stdGravParam:       427193718902479
  soi:                21659089632.544155
  orbit:
    semiMajorAxis:    1124363958202.93
    eccentricity:     0.008564584851545534
    inclination:      1.770410252598332
    argOfPeriapsis:   274.4923642307832
    ascNodeLongitude: 131.8321153312058
  meanAnomaly0:       2.6058973944456714
  epoch:              0
  orbiting:           0
  color:              0x305490

- !!map
  id:                 34
  name:               Triton
  radius:             338350
  mass:               1.3368425721845648e+21
  stdGravParam:       89224883795.3144
  soi:                2991079.6305851107
  orbit:
    semiMajorAxis:    88691810.885166
    eccentricity:     0.0001688014359763687
    inclination:      156.885
    argOfPeriapsis:   220.4523286895169
    ascNodeLongitude: 197.1953239788069
  meanAnomaly0:       6.25973135910971
  epoch:              0
  orbiting:           33
  color:              0xffffff

- !!map
  id:                 35
  name:               Pluto
  radius:             296750
  mass:               814330545676020100000
  stdGravParam:       54350863610.0546
  soi:                778646380.2928891
  orbit:
    semiMajorAxis:    1461417656019.55
    eccentricity:     0.2462457947997467
    inclination:      17.30784805894436
    argOfPeriapsis:   114.9992233936556
    ascNodeLongitude: 110.6134914716127
  meanAnomaly0:       5.2469887636338
  epoch:              0
  orbiting:           0
  color:              0xac9078

